CCSDS_OMM_VERS = 2.0
CREATION_DATE  = 
ORIGINATOR     = 

OBJECT_NAME    = STARLINK-36189
OBJECT_ID      = 2025-293H
CENTER_NAME    = EARTH
REF_FRAME      = TEME
TIME_SYSTEM    = UTC
MEAN_ELEMENT_THEORY = SGP/SGP4

EPOCH          = 2026-01-04T14:00:01.999872
MEAN_MOTION    = 15.52424308
ECCENTRICITY   = .00030142
INCLINATION    = 69.9994
RA_OF_ASC_NODE = 258.9070
ARG_OF_PERICENTER = 262.2637
MEAN_ANOMALY   = 147.8521

EPHEMERIS_TYPE = 0
CLASSIFICATION_TYPE = U
NORAD_CAT_ID   = 67010
ELEMENT_SET_NO = 999
REV_AT_EPOCH   = 382
BSTAR          = .27458539E-2
MEAN_MOTION_DOT = .171873E-2
MEAN_MOTION_DDOT = 0

CCSDS_OMM_VERS = 2.0
CREATION_DATE  = 
ORIGINATOR     = 

OBJECT_NAME    = STARLINK-36167
OBJECT_ID      = 2025-293J
CENTER_NAME    = EARTH
REF_FRAME      = TEME
TIME_SYSTEM    = UTC
MEAN_ELEMENT_THEORY = SGP/SGP4

EPOCH          = 2026-01-04T14:00:01.999872
MEAN_MOTION    = 15.52420994
ECCENTRICITY   = .00029009
INCLINATION    = 69.9994
RA_OF_ASC_NODE = 258.9093
ARG_OF_PERICENTER = 265.0197
MEAN_ANOMALY   = 143.1747

EPHEMERIS_TYPE = 0
CLASSIFICATION_TYPE = U
NORAD_CAT_ID   = 67011
ELEMENT_SET_NO = 999
REV_AT_EPOCH   = 376
BSTAR          = .31179728E-2
MEAN_MOTION_DOT = .195756E-2
MEAN_MOTION_DDOT = 0

CCSDS_OMM_VERS = 2.0
CREATION_DATE  = 
ORIGINATOR     = 

OBJECT_NAME    = STARLINK-36175
OBJECT_ID      = 2025-293K
CENTER_NAME    = EARTH
REF_FRAME      = TEME
TIME_SYSTEM    = UTC
MEAN_ELEMENT_THEORY = SGP/SGP4

EPOCH          = 2026-01-04T14:00:01.999872
MEAN_MOTION    = 15.52425800
ECCENTRICITY   = .00031639
INCLINATION    = 69.9994
RA_OF_ASC_NODE = 258.9046
ARG_OF_PERICENTER = 264.0552
MEAN_ANOMALY   = 147.9745

EPHEMERIS_TYPE = 0
CLASSIFICATION_TYPE = U
NORAD_CAT_ID   = 67012
ELEMENT_SET_NO = 999
REV_AT_EPOCH   = 376
BSTAR          = .27389612E-2
MEAN_MOTION_DOT = .171443E-2
MEAN_MOTION_DDOT = 0

CCSDS_OMM_VERS = 2.0
CREATION_DATE  = 
ORIGINATOR     = 

OBJECT_NAME    = STARLINK-35856
OBJECT_ID      = 2025-293L
CENTER_NAME    = EARTH
REF_FRAME      = TEME
TIME_SYSTEM    = UTC
MEAN_ELEMENT_THEORY = SGP/SGP4

EPOCH          = 2026-01-04T14:00:01.999872
MEAN_MOTION    = 15.52429893
ECCENTRICITY   = .00032619
INCLINATION    = 69.9994
RA_OF_ASC_NODE = 258.9026
ARG_OF_PERICENTER = 263.8828
MEAN_ANOMALY   = 150.0590

EPHEMERIS_TYPE = 0
CLASSIFICATION_TYPE = U
NORAD_CAT_ID   = 67013
ELEMENT_SET_NO = 999
REV_AT_EPOCH   = 376
BSTAR          = .26871256E-2
MEAN_MOTION_DOT = .168151E-2
MEAN_MOTION_DDOT = 0

CCSDS_OMM_VERS = 2.0
CREATION_DATE  = 
ORIGINATOR     = 

OBJECT_NAME    = STARLINK-36207
OBJECT_ID      = 2025-293M
CENTER_NAME    = EARTH
REF_FRAME      = TEME
TIME_SYSTEM    = UTC
MEAN_ELEMENT_THEORY = SGP/SGP4

EPOCH          = 2026-01-04T02:56:12.505344
MEAN_MOTION    = 15.52551111
ECCENTRICITY   = .00032986
INCLINATION    = 69.9991
RA_OF_ASC_NODE = 260.1628
ARG_OF_PERICENTER = 275.5553
MEAN_ANOMALY   = 84.5258

EPHEMERIS_TYPE = 0
CLASSIFICATION_TYPE = U
NORAD_CAT_ID   = 67014
ELEMENT_SET_NO = 999
REV_AT_EPOCH   = 514
BSTAR          = .20186523E-2
MEAN_MOTION_DOT = .126157E-2
MEAN_MOTION_DDOT = 0

CCSDS_OMM_VERS = 2.0
CREATION_DATE  = 
ORIGINATOR     = 

OBJECT_NAME    = STARLINK-36093
OBJECT_ID      = 2025-293N
CENTER_NAME    = EARTH
REF_FRAME      = TEME
TIME_SYSTEM    = UTC
MEAN_ELEMENT_THEORY = SGP/SGP4

EPOCH          = 2026-01-04T02:55:13.141632
MEAN_MOTION    = 15.52551082
ECCENTRICITY   = .00032869
INCLINATION    = 69.9994
RA_OF_ASC_NODE = 260.1606
ARG_OF_PERICENTER = 266.1951
MEAN_ANOMALY   = 93.8860

EPHEMERIS_TYPE = 0
CLASSIFICATION_TYPE = U
NORAD_CAT_ID   = 67015
ELEMENT_SET_NO = 999
REV_AT_EPOCH   = 514
BSTAR          = .16624245E-2
MEAN_MOTION_DOT = .103568E-2
MEAN_MOTION_DDOT = 0

CCSDS_OMM_VERS = 2.0
CREATION_DATE  = 
ORIGINATOR     = 

OBJECT_NAME    = STARLINK-36120
OBJECT_ID      = 2025-293P
CENTER_NAME    = EARTH
REF_FRAME      = TEME
TIME_SYSTEM    = UTC
MEAN_ELEMENT_THEORY = SGP/SGP4

EPOCH          = 2026-01-04T02:55:42.737952
MEAN_MOTION    = 15.52558097
ECCENTRICITY   = .0003207
INCLINATION    = 69.9992
RA_OF_ASC_NODE = 260.1621
ARG_OF_PERICENTER = 263.3090
MEAN_ANOMALY   = 96.7732

EPHEMERIS_TYPE = 0
CLASSIFICATION_TYPE = U
NORAD_CAT_ID   = 67016
ELEMENT_SET_NO = 999
REV_AT_EPOCH   = 514
BSTAR          = .11971497E-2
MEAN_MOTION_DOT = .74277E-3
MEAN_MOTION_DDOT = 0

CCSDS_OMM_VERS = 2.0
CREATION_DATE  = 
ORIGINATOR     = 

OBJECT_NAME    = STARLINK-35498
OBJECT_ID      = 2025-293Q
CENTER_NAME    = EARTH
REF_FRAME      = TEME
TIME_SYSTEM    = UTC
MEAN_ELEMENT_THEORY = SGP/SGP4

EPOCH          = 2026-01-04T02:54:43.643808
MEAN_MOTION    = 15.52550932
ECCENTRICITY   = .00031908
INCLINATION    = 69.9991
RA_OF_ASC_NODE = 260.1589
ARG_OF_PERICENTER = 265.6617
MEAN_ANOMALY   = 94.4206

EPHEMERIS_TYPE = 0
CLASSIFICATION_TYPE = U
NORAD_CAT_ID   = 67017
ELEMENT_SET_NO = 999
REV_AT_EPOCH   = 514
BSTAR          = .20616015E-2
MEAN_MOTION_DOT = .128887E-2
MEAN_MOTION_DDOT = 0

CCSDS_OMM_VERS = 2.0
CREATION_DATE  = 
ORIGINATOR     = 

OBJECT_NAME    = STARLINK-36106
OBJECT_ID      = 2025-293R
CENTER_NAME    = EARTH
REF_FRAME      = TEME
TIME_SYSTEM    = UTC
MEAN_ELEMENT_THEORY = SGP/SGP4

EPOCH          = 2026-01-04T02:54:13.913568
MEAN_MOTION    = 15.52559138
ECCENTRICITY   = .00036169
INCLINATION    = 69.9992
RA_OF_ASC_NODE = 260.1575
ARG_OF_PERICENTER = 274.1085
MEAN_ANOMALY   = 85.9688

EPHEMERIS_TYPE = 0
CLASSIFICATION_TYPE = U
NORAD_CAT_ID   = 67018
ELEMENT_SET_NO = 999
REV_AT_EPOCH   = 514
BSTAR          = .19905854E-2
MEAN_MOTION_DOT = .124413E-2
MEAN_MOTION_DDOT = 0

CCSDS_OMM_VERS = 2.0
CREATION_DATE  = 
ORIGINATOR     = 

OBJECT_NAME    = STARLINK-35688
OBJECT_ID      = 2025-293S
CENTER_NAME    = EARTH
REF_FRAME      = TEME
TIME_SYSTEM    = UTC
MEAN_ELEMENT_THEORY = SGP/SGP4

EPOCH          = 2026-01-04T14:00:01.999872
MEAN_MOTION    = 15.52500520
ECCENTRICITY   = .00032804
INCLINATION    = 69.9993
RA_OF_ASC_NODE = 258.8883
ARG_OF_PERICENTER = 267.0765
MEAN_ANOMALY   = 158.3523

EPHEMERIS_TYPE = 0
CLASSIFICATION_TYPE = U
NORAD_CAT_ID   = 67019
ELEMENT_SET_NO = 999
REV_AT_EPOCH   = 396
BSTAR          = .54256236E-3
MEAN_MOTION_DOT = .33329E-3
MEAN_MOTION_DDOT = 0

CCSDS_OMM_VERS = 2.0
CREATION_DATE  = 
ORIGINATOR     = 

OBJECT_NAME    = STARLINK-36172
OBJECT_ID      = 2025-293T
CENTER_NAME    = EARTH
REF_FRAME      = TEME
TIME_SYSTEM    = UTC
MEAN_ELEMENT_THEORY = SGP/SGP4

EPOCH          = 2026-01-04T14:00:01.999872
MEAN_MOTION    = 15.52482971
ECCENTRICITY   = .00033417
INCLINATION    = 69.9992
RA_OF_ASC_NODE = 258.8861
ARG_OF_PERICENTER = 267.8754
MEAN_ANOMALY   = 159.4685

EPHEMERIS_TYPE = 0
CLASSIFICATION_TYPE = U
NORAD_CAT_ID   = 67020
ELEMENT_SET_NO = 999
REV_AT_EPOCH   = 388
BSTAR          = .10925406E-2
MEAN_MOTION_DOT = .67533E-3
MEAN_MOTION_DDOT = 0

CCSDS_OMM_VERS = 2.0
CREATION_DATE  = 
ORIGINATOR     = 

OBJECT_NAME    = STARLINK-36184
OBJECT_ID      = 2025-293U
CENTER_NAME    = EARTH
REF_FRAME      = TEME
TIME_SYSTEM    = UTC
MEAN_ELEMENT_THEORY = SGP/SGP4

EPOCH          = 2026-01-04T14:00:01.999872
MEAN_MOTION    = 15.52484829
ECCENTRICITY   = .0003254
INCLINATION    = 69.9994
RA_OF_ASC_NODE = 258.8839
ARG_OF_PERICENTER = 263.7781
MEAN_ANOMALY   = 165.4796

EPHEMERIS_TYPE = 0
CLASSIFICATION_TYPE = U
NORAD_CAT_ID   = 67021
ELEMENT_SET_NO = 999
REV_AT_EPOCH   = 388
BSTAR          = .10448376E-2
MEAN_MOTION_DOT = .64556E-3
MEAN_MOTION_DDOT = 0

