STARLINK-36189          
1 67010U 25293H   26004.58335648  .00171873  00000+0  27459-2 0  9994
2 67010  69.9994 258.9070 0003014 262.2637 147.8521 15.52424308  3824
STARLINK-36167          
1 67011U 25293J   26004.58335648  .00195756  00000+0  31180-2 0  9997
2 67011  69.9994 258.9093 0002900 265.0197 143.1747 15.52420994  3764
STARLINK-36175          
1 67012U 25293K   26004.58335648  .00171443  00000+0  27390-2 0  9993
2 67012  69.9994 258.9046 0003163 264.0552 147.9745 15.52425800  3760
STARLINK-35856          
1 67013U 25293L   26004.58335648  .00168151  00000+0  26871-2 0  9999
2 67013  69.9994 258.9026 0003261 263.8828 150.0590 15.52429893  3760
STARLINK-36207          
1 67014U 25293M   26004.12236696  .00126157  00000+0  20187-2 0  9997
2 67014  69.9991 260.1628 0003298 275.5553  84.5258 15.52551111  5141
STARLINK-36093          
1 67015U 25293N   26004.12167988  .00103568  00000+0  16624-2 0  9997
2 67015  69.9994 260.1606 0003286 266.1951  93.8860 15.52551082  5145
STARLINK-36120          
1 67016U 25293P   26004.12202243  .00074277  00000+0  11971-2 0  9996
2 67016  69.9992 260.1621 0003207 263.3090  96.7732 15.52558097  5140
STARLINK-35498          
1 67017U 25293Q   26004.12133847  .00128887  00000+0  20616-2 0  9993
2 67017  69.9991 260.1589 0003190 265.6617  94.4206 15.52550932  5145
STARLINK-36106          
1 67018U 25293R   26004.12099437  .00124413  00000+0  19906-2 0  9991
2 67018  69.9992 260.1575 0003616 274.1085  85.9688 15.52559138  5145
STARLINK-35688          
1 67019U 25293S   26004.58335648  .00033329  00000+0  54256-3 0  9992
2 67019  69.9993 258.8883 0003280 267.0765 158.3523 15.52500520  3968
STARLINK-36172          
1 67020U 25293T   26004.58335648  .00067533  00000+0  10925-2 0  9992
2 67020  69.9992 258.8861 0003341 267.8754 159.4685 15.52482971  3880
STARLINK-36184          
1 67021U 25293U   26004.58335648  .00064556  00000+0  10448-2 0  9995
2 67021  69.9994 258.8839 0003254 263.7781 165.4796 15.52484829  3880
